{
  "type": "FeatureCollection",
  "features": [
    {
      "type": "Feature",
      "properties": {
        "norad_id": 25590,
        "name": "COSMOS 2361",
        "group": "musson",
        "lat": 8.35306870116167,
        "lon": -16.758953714439087,
        "alt_km": 997.4117273084967,
        "timestamp": "2025-12-15T07:02:37.886058+00:00",
        "meta_object_name": "COSMOS 2361",
        "meta_object_id": "1998-076A",
        "meta_epoch": "2025-12-14T22:33:35.993088",
        "meta_mean_motion": 13.73217718,
        "meta_eccentricity": 0.00300674,
        "meta_inclination": 82.934,
        "meta_ra_of_asc_node": 342.4589,
        "meta_arg_of_pericenter": 259.2217,
        "meta_mean_anomaly": 162.4401,
        "meta_ephemeris_type": 0,
        "meta_classification_type": "U",
        "meta_norad_cat_id": 25590,
        "meta_element_set_no": 999,
        "meta_rev_at_epoch": 35141,
        "meta_bstar": 7.3459132e-05,
        "meta_mean_motion_dot": 8.3e-07,
        "meta_mean_motion_ddot": 0,
        "tle_line1": "1 25590U 98076A   25348.93999992  .00000083  00000+0  73459-4 0  9994",
        "tle_line2": "2 25590  82.9340 342.4589 0030067 259.2217 162.4401 13.73217718351410"
      },
      "geometry": {
        "type": "Point",
        "coordinates": [
          -16.758953714439087,
          8.35306870116167
        ]
      }
    },
    {
      "type": "Feature",
      "properties": {
        "norad_id": 26818,
        "name": "COSMOS 2378",
        "group": "musson",
        "lat": 82.84877493609496,
        "lon": 79.53049045933683,
        "alt_km": 984.8937966644589,
        "timestamp": "2025-12-15T07:02:37.886079+00:00",
        "meta_object_name": "COSMOS 2378",
        "meta_object_id": "2001-023A",
        "meta_epoch": "2025-12-14T19:13:04.421568",
        "meta_mean_motion": 13.74142119,
        "meta_eccentricity": 0.00325282,
        "meta_inclination": 82.9272,
        "meta_ra_of_asc_node": 358.1966,
        "meta_arg_of_pericenter": 199.0718,
        "meta_mean_anomaly": 334.0428,
        "meta_ephemeris_type": 0,
        "meta_classification_type": "U",
        "meta_norad_cat_id": 26818,
        "meta_element_set_no": 999,
        "meta_rev_at_epoch": 22951,
        "meta_bstar": 5.2584304e-05,
        "meta_mean_motion_dot": 6.5e-07,
        "meta_mean_motion_ddot": 0,
        "tle_line1": "1 26818U 01023A   25348.80074562  .00000065  00000+0  52584-4 0  9993",
        "tle_line2": "2 26818  82.9272 358.1966 0032528 199.0718 334.0428 13.74142119229516"
      },
      "geometry": {
        "type": "Point",
        "coordinates": [
          79.53049045933683,
          82.84877493609496
        ]
      }
    },
    {
      "type": "Feature",
      "properties": {
        "norad_id": 27436,
        "name": "COSMOS 2389",
        "group": "musson",
        "lat": -54.43394018606459,
        "lon": -64.87111514043363,
        "alt_km": 999.2427467945354,
        "timestamp": "2025-12-15T07:02:37.886093+00:00",
        "meta_object_name": "COSMOS 2389",
        "meta_object_id": "2002-026A",
        "meta_epoch": "2025-12-14T22:52:07.528224",
        "meta_mean_motion": 13.75154909,
        "meta_eccentricity": 0.00475619,
        "meta_inclination": 82.9505,
        "meta_ra_of_asc_node": 305.3462,
        "meta_arg_of_pericenter": 54.7328,
        "meta_mean_anomaly": 5.4523,
        "meta_ephemeris_type": 0,
        "meta_classification_type": "U",
        "meta_norad_cat_id": 27436,
        "meta_element_set_no": 999,
        "meta_rev_at_epoch": 18179,
        "meta_bstar": 6.1219189e-05,
        "meta_mean_motion_dot": 7.5e-07,
        "meta_mean_motion_ddot": 0,
        "tle_line1": "1 27436U 02026A   25348.95286491  .00000075  00000+0  61219-4 0  9992",
        "tle_line2": "2 27436  82.9505 305.3462 0047561  54.7328   5.4523 13.75154909181797"
      },
      "geometry": {
        "type": "Point",
        "coordinates": [
          -64.87111514043363,
          -54.43394018606459
        ]
      }
    },
    {
      "type": "Feature",
      "properties": {
        "norad_id": 27818,
        "name": "COSMOS 2398",
        "group": "musson",
        "lat": -52.580843765644836,
        "lon": 100.12643996724336,
        "alt_km": 1012.7943976619754,
        "timestamp": "2025-12-15T07:02:37.886104+00:00",
        "meta_object_name": "COSMOS 2398",
        "meta_object_id": "2003-023A",
        "meta_epoch": "2025-12-14T21:30:06.973056",
        "meta_mean_motion": 13.72385892,
        "meta_eccentricity": 0.00326389,
        "meta_inclination": 82.9485,
        "meta_ra_of_asc_node": 271.1094,
        "meta_arg_of_pericenter": 106.0133,
        "meta_mean_anomaly": 323.5985,
        "meta_ephemeris_type": 0,
        "meta_classification_type": "U",
        "meta_norad_cat_id": 27818,
        "meta_element_set_no": 999,
        "meta_rev_at_epoch": 12846,
        "meta_bstar": 3.6947691e-05,
        "meta_mean_motion_dot": 4.9e-07,
        "meta_mean_motion_ddot": 0,
        "tle_line1": "1 27818U 03023A   25348.89591404  .00000049  00000+0  36948-4 0  9992",
        "tle_line2": "2 27818  82.9485 271.1094 0032638 106.0133 323.5985 13.72385892128468"
      },
      "geometry": {
        "type": "Point",
        "coordinates": [
          100.12643996724336,
          -52.580843765644836
        ]
      }
    },
    {
      "type": "Feature",
      "properties": {
        "norad_id": 28380,
        "name": "COSMOS 2407",
        "group": "musson",
        "lat": 73.47003418908533,
        "lon": 6.398414340859527,
        "alt_km": 953.7927320604249,
        "timestamp": "2025-12-15T07:02:37.886116+00:00",
        "meta_object_name": "COSMOS 2407",
        "meta_object_id": "2004-028A",
        "meta_epoch": "2025-12-14T21:52:02.046720",
        "meta_mean_motion": 13.76313914,
        "meta_eccentricity": 0.004026,
        "meta_inclination": 82.9604,
        "meta_ra_of_asc_node": 211.2851,
        "meta_arg_of_pericenter": 48.953,
        "meta_mean_anomaly": 322.208,
        "meta_ephemeris_type": 0,
        "meta_classification_type": "U",
        "meta_norad_cat_id": 28380,
        "meta_element_set_no": 999,
        "meta_rev_at_epoch": 7453,
        "meta_bstar": 6.7806638e-05,
        "meta_mean_motion_dot": 8.2e-07,
        "meta_mean_motion_ddot": 0,
        "tle_line1": "1 28380U 04028A   25348.91113480  .00000082  00000+0  67807-4 0  9995",
        "tle_line2": "2 28380  82.9604 211.2851 0040260  48.9530 322.2080 13.76313914 74537"
      },
      "geometry": {
        "type": "Point",
        "coordinates": [
          6.398414340859527,
          73.47003418908533
        ]
      }
    },
    {
      "type": "Feature",
      "properties": {
        "norad_id": 28521,
        "name": "COSMOS 2414",
        "group": "musson",
        "lat": 64.72604061234443,
        "lon": -12.468146439402878,
        "alt_km": 901.1721152502187,
        "timestamp": "2025-12-15T07:02:37.886128+00:00",
        "meta_object_name": "COSMOS 2414",
        "meta_object_id": "2005-002A",
        "meta_epoch": "2025-12-14T21:50:41.981568",
        "meta_mean_motion": 13.87903234,
        "meta_eccentricity": 0.00410136,
        "meta_inclination": 82.9489,
        "meta_ra_of_asc_node": 183.0187,
        "meta_arg_of_pericenter": 133.6041,
        "meta_mean_anomaly": 226.8538,
        "meta_ephemeris_type": 0,
        "meta_classification_type": "U",
        "meta_norad_cat_id": 28521,
        "meta_element_set_no": 999,
        "meta_rev_at_epoch": 5825,
        "meta_bstar": 7.3412594e-05,
        "meta_mean_motion_dot": 1.04e-06,
        "meta_mean_motion_ddot": 0,
        "tle_line1": "1 28521U 05002A   25348.91020812  .00000104  00000+0  73413-4 0  9996",
        "tle_line2": "2 28521  82.9489 183.0187 0041013 133.6041 226.8538 13.87903234 58259"
      },
      "geometry": {
        "type": "Point",
        "coordinates": [
          -12.468146439402878,
          64.72604061234443
        ]
      }
    },
    {
      "type": "Feature",
      "properties": {
        "norad_id": 32052,
        "name": "COSMOS 2429",
        "group": "musson",
        "lat": 47.670385874963934,
        "lon": 153.65237550111578,
        "alt_km": 982.230503234875,
        "timestamp": "2025-12-15T07:02:37.886139+00:00",
        "meta_object_name": "COSMOS 2429",
        "meta_object_id": "2007-038A",
        "meta_epoch": "2025-12-14T16:26:18.580992",
        "meta_mean_motion": 13.75149534,
        "meta_eccentricity": 0.00391399,
        "meta_inclination": 82.9804,
        "meta_ra_of_asc_node": 341.8746,
        "meta_arg_of_pericenter": 32.5527,
        "meta_mean_anomaly": 327.8031,
        "meta_ephemeris_type": 0,
        "meta_classification_type": "U",
        "meta_norad_cat_id": 32052,
        "meta_element_set_no": 999,
        "meta_rev_at_epoch": 91629,
        "meta_bstar": 6.9252386e-05,
        "meta_mean_motion_dot": 8.2e-07,
        "meta_mean_motion_ddot": 0,
        "tle_line1": "1 32052U 07038A   25348.68493728  .00000082  00000+0  69252-4 0  9996",
        "tle_line2": "2 32052  82.9804 341.8746 0039139  32.5527 327.8031 13.75149534916290"
      },
      "geometry": {
        "type": "Point",
        "coordinates": [
          153.65237550111578,
          47.670385874963934
        ]
      }
    },
    {
      "type": "Feature",
      "properties": {
        "norad_id": 35635,
        "name": "COSMOS 2454",
        "group": "musson",
        "lat": -3.5331910961753965,
        "lon": -12.853538777888858,
        "alt_km": 938.9047149646394,
        "timestamp": "2025-12-15T07:02:37.886149+00:00",
        "meta_object_name": "COSMOS 2454",
        "meta_object_id": "2009-039A",
        "meta_epoch": "2025-12-14T22:02:52.324224",
        "meta_mean_motion": 13.89928845,
        "meta_eccentricity": 0.00204009,
        "meta_inclination": 82.9554,
        "meta_ra_of_asc_node": 166.9932,
        "meta_arg_of_pericenter": 67.9033,
        "meta_mean_anomaly": 40.8357,
        "meta_ephemeris_type": 0,
        "meta_classification_type": "U",
        "meta_norad_cat_id": 35635,
        "meta_element_set_no": 999,
        "meta_rev_at_epoch": 83180,
        "meta_bstar": 6.061045e-05,
        "meta_mean_motion_dot": 9.1e-07,
        "meta_mean_motion_ddot": 0,
        "tle_line1": "1 35635U 09039A   25348.91866116  .00000091  00000+0  60610-4 0  9999",
        "tle_line2": "2 35635  82.9554 166.9932 0020400  67.9033  40.8357 13.89928845831801"
      },
      "geometry": {
        "type": "Point",
        "coordinates": [
          -12.853538777888858,
          -3.5331910961753965
        ]
      }
    },
    {
      "type": "Feature",
      "properties": {
        "norad_id": 36519,
        "name": "COSMOS 2463",
        "group": "musson",
        "lat": 55.2306342718985,
        "lon": 35.087466653274014,
        "alt_km": 1006.5219947552087,
        "timestamp": "2025-12-15T07:02:37.886160+00:00",
        "meta_object_name": "COSMOS 2463",
        "meta_object_id": "2010-017A",
        "meta_epoch": "2025-12-14T15:35:17.424672",
        "meta_mean_motion": 13.71649265,
        "meta_eccentricity": 0.00347608,
        "meta_inclination": 82.9612,
        "meta_ra_of_asc_node": 25.3093,
        "meta_arg_of_pericenter": 282.5486,
        "meta_mean_anomaly": 194.9131,
        "meta_ephemeris_type": 0,
        "meta_classification_type": "U",
        "meta_norad_cat_id": 36519,
        "meta_element_set_no": 999,
        "meta_rev_at_epoch": 78263,
        "meta_bstar": 4.5971433e-05,
        "meta_mean_motion_dot": 5.6e-07,
        "meta_mean_motion_ddot": 0,
        "tle_line1": "1 36519U 10017A   25348.64950723  .00000056  00000+0  45971-4 0  9991",
        "tle_line2": "2 36519  82.9612  25.3093 0034760 282.5486 194.9131 13.71649265782639"
      },
      "geometry": {
        "type": "Point",
        "coordinates": [
          35.087466653274014,
          55.2306342718985
        ]
      }
    }
  ]
}